[{"OBJECT_NAME":"STARLINK-36870","OBJECT_ID":"2026-035U","EPOCH":"2026-03-06T20:00:00.999360","MEAN_MOTION":15.94853961,"ECCENTRICITY":0.0001275,"INCLINATION":97.2708,"RA_OF_ASC_NODE":357.9808,"ARG_OF_PERICENTER":85.5244,"MEAN_ANOMALY":22.1317,"EPHEMERIS_TYPE":0,"CLASSIFICATION_TYPE":"U","NORAD_CAT_ID":67897,"ELEMENT_SET_NO":999,"REV_AT_EPOCH":329,"BSTAR":-0.0032358,"MEAN_MOTION_DOT":-0.01230878,"MEAN_MOTION_DDOT":0.00045547},{"OBJECT_NAME":"STARLINK-36810","OBJECT_ID":"2026-035V","EPOCH":"2026-03-06T20:00:00.999360","MEAN_MOTION":15.94921059,"ECCENTRICITY":0.000126,"INCLINATION":97.2707,"RA_OF_ASC_NODE":357.9825,"ARG_OF_PERICENTER":79.1543,"MEAN_ANOMALY":32.8214,"EPHEMERIS_TYPE":0,"CLASSIFICATION_TYPE":"U","NORAD_CAT_ID":67898,"ELEMENT_SET_NO":999,"REV_AT_EPOCH":329,"BSTAR":-0.0032584,"MEAN_MOTION_DOT":-0.01243744,"MEAN_MOTION_DDOT":0.00046465},{"OBJECT_NAME":"STARLINK-36878","OBJECT_ID":"2026-035W","EPOCH":"2026-03-06T20:00:00.999360","MEAN_MOTION":15.95046556,"ECCENTRICITY":0.0001296,"INCLINATION":97.2705,"RA_OF_ASC_NODE":357.9861,"ARG_OF_PERICENTER":91.7319,"MEAN_ANOMALY":28.8492,"EPHEMERIS_TYPE":0,"CLASSIFICATION_TYPE":"U","NORAD_CAT_ID":67899,"ELEMENT_SET_NO":999,"REV_AT_EPOCH":329,"BSTAR":-0.0032297,"MEAN_MOTION_DOT":-0.01241102,"MEAN_MOTION_DDOT":0.00046342},{"OBJECT_NAME":"STARLINK-36361","OBJECT_ID":"2026-035X","EPOCH":"2026-03-06T20:00:00.999360","MEAN_MOTION":15.95120743,"ECCENTRICITY":0.0001325,"INCLINATION":97.2704,"RA_OF_ASC_NODE":357.988,"ARG_OF_PERICENTER":90.4324,"MEAN_ANOMALY":34.7907,"EPHEMERIS_TYPE":0,"CLASSIFICATION_TYPE":"U","NORAD_CAT_ID":67900,"ELEMENT_SET_NO":999,"REV_AT_EPOCH":329,"BSTAR":-0.003297,"MEAN_MOTION_DOT":-0.01271672,"MEAN_MOTION_DDOT":0.00048514},{"OBJECT_NAME":"STARLINK-36336","OBJECT_ID":"2026-035Y","EPOCH":"2026-03-06T20:00:00.999360","MEAN_MOTION":15.95326405,"ECCENTRICITY":0.0001259,"INCLINATION":97.2714,"RA_OF_ASC_NODE":357.9946,"ARG_OF_PERICENTER":86.8547,"MEAN_ANOMALY":52.5268,"EPHEMERIS_TYPE":0,"CLASSIFICATION_TYPE":"U","NORAD_CAT_ID":67901,"ELEMENT_SET_NO":999,"REV_AT_EPOCH":334,"BSTAR":-0.0036851,"MEAN_MOTION_DOT":-0.014352,"MEAN_MOTION_DDOT":0.00060816},{"OBJECT_NAME":"STARLINK-36876","OBJECT_ID":"2026-035Z","EPOCH":"2026-03-06T20:00:00.999360","MEAN_MOTION":15.95203963,"ECCENTRICITY":0.0001326,"INCLINATION":97.2712,"RA_OF_ASC_NODE":357.9909,"ARG_OF_PERICENTER":95.1371,"MEAN_ANOMALY":34.2516,"EPHEMERIS_TYPE":0,"CLASSIFICATION_TYPE":"U","NORAD_CAT_ID":67902,"ELEMENT_SET_NO":999,"REV_AT_EPOCH":329,"BSTAR":-0.0034026,"MEAN_MOTION_DOT":-0.0131777,"MEAN_MOTION_DDOT":0.00051863},{"OBJECT_NAME":"STARLINK-36257","OBJECT_ID":"2026-035AA","EPOCH":"2026-03-06T20:00:00.999360","MEAN_MOTION":15.95290423,"ECCENTRICITY":0.0001282,"INCLINATION":97.271,"RA_OF_ASC_NODE":357.9917,"ARG_OF_PERICENTER":81.6762,"MEAN_ANOMALY":52.0633,"EPHEMERIS_TYPE":0,"CLASSIFICATION_TYPE":"U","NORAD_CAT_ID":67903,"ELEMENT_SET_NO":999,"REV_AT_EPOCH":334,"BSTAR":-0.0035823,"MEAN_MOTION_DOT":-0.01392936,"MEAN_MOTION_DDOT":0.00057521},{"OBJECT_NAME":"STARLINK-36814","OBJECT_ID":"2026-036A","EPOCH":"2026-03-06T20:00:00.999360","MEAN_MOTION":15.82030931,"ECCENTRICITY":0.000245,"INCLINATION":42.9991,"RA_OF_ASC_NODE":267.317,"ARG_OF_PERICENTER":265.7455,"MEAN_ANOMALY":240.389,"EPHEMERIS_TYPE":0,"CLASSIFICATION_TYPE":"U","NORAD_CAT_ID":67904,"ELEMENT_SET_NO":999,"REV_AT_EPOCH":318,"BSTAR":-0.00011025,"MEAN_MOTION_DOT":-0.00023706,"MEAN_MOTION_DDOT":0},{"OBJECT_NAME":"STARLINK-36729","OBJECT_ID":"2026-036B","EPOCH":"2026-03-06T20:00:00.999360","MEAN_MOTION":15.82036201,"ECCENTRICITY":0.0001765,"INCLINATION":42.9992,"RA_OF_ASC_NODE":267.3056,"ARG_OF_PERICENTER":280.2801,"MEAN_ANOMALY":230.1281,"EPHEMERIS_TYPE":0,"CLASSIFICATION_TYPE":"U","NORAD_CAT_ID":67905,"ELEMENT_SET_NO":999,"REV_AT_EPOCH":318,"BSTAR":-0.00019609,"MEAN_MOTION_DOT":-0.00041664,"MEAN_MOTION_DDOT":0},{"OBJECT_NAME":"STARLINK-36763","OBJECT_ID":"2026-036C","EPOCH":"2026-03-06T20:00:00.999360","MEAN_MOTION":15.82044176,"ECCENTRICITY":0.0002051,"INCLINATION":42.9995,"RA_OF_ASC_NODE":267.2949,"ARG_OF_PERICENTER":267.2936,"MEAN_ANOMALY":247.3788,"EPHEMERIS_TYPE":0,"CLASSIFICATION_TYPE":"U","NORAD_CAT_ID":67906,"ELEMENT_SET_NO":999,"REV_AT_EPOCH":318,"BSTAR":-0.0002352,"MEAN_MOTION_DOT":-0.00049843,"MEAN_MOTION_DDOT":0},{"OBJECT_NAME":"STARLINK-36742","OBJECT_ID":"2026-036D","EPOCH":"2026-03-06T20:00:00.999360","MEAN_MOTION":15.8204209,"ECCENTRICITY":0.000188,"INCLINATION":42.9993,"RA_OF_ASC_NODE":267.2842,"ARG_OF_PERICENTER":271.7836,"MEAN_ANOMALY":247.164,"EPHEMERIS_TYPE":0,"CLASSIFICATION_TYPE":"U","NORAD_CAT_ID":67907,"ELEMENT_SET_NO":999,"REV_AT_EPOCH":318,"BSTAR":-0.0002406,"MEAN_MOTION_DOT":-0.00050962,"MEAN_MOTION_DDOT":0},{"OBJECT_NAME":"STARLINK-36827","OBJECT_ID":"2026-036E","EPOCH":"2026-03-06T20:00:00.999360","MEAN_MOTION":15.82028501,"ECCENTRICITY":0.00018,"INCLINATION":42.9991,"RA_OF_ASC_NODE":267.2738,"ARG_OF_PERICENTER":276.4044,"MEAN_ANOMALY":246.8205,"EPHEMERIS_TYPE":0,"CLASSIFICATION_TYPE":"U","NORAD_CAT_ID":67908,"ELEMENT_SET_NO":999,"REV_AT_EPOCH":318,"BSTAR":-0.0001061,"MEAN_MOTION_DOT":-0.0002283,"MEAN_MOTION_DDOT":0},{"OBJECT_NAME":"STARLINK-36822","OBJECT_ID":"2026-036F","EPOCH":"2026-03-06T20:00:00.999360","MEAN_MOTION":15.8203404,"ECCENTRICITY":0.0001857,"INCLINATION":42.9992,"RA_OF_ASC_NODE":267.2632,"ARG_OF_PERICENTER":275.0064,"MEAN_ANOMALY":252.4911,"EPHEMERIS_TYPE":0,"CLASSIFICATION_TYPE":"U","NORAD_CAT_ID":67909,"ELEMENT_SET_NO":999,"REV_AT_EPOCH":318,"BSTAR":-0.00017569,"MEAN_MOTION_DOT":-0.00037401,"MEAN_MOTION_DDOT":0},{"OBJECT_NAME":"STARLINK-36847","OBJECT_ID":"2026-036G","EPOCH":"2026-03-06T20:00:00.999360","MEAN_MOTION":15.82027938,"ECCENTRICITY":0.0001921,"INCLINATION":42.999,"RA_OF_ASC_NODE":267.2521,"ARG_OF_PERICENTER":279.303,"MEAN_ANOMALY":252.4642,"EPHEMERIS_TYPE":0,"CLASSIFICATION_TYPE":"U","NORAD_CAT_ID":67910,"ELEMENT_SET_NO":999,"REV_AT_EPOCH":318,"BSTAR":-0.0001194,"MEAN_MOTION_DOT":-0.00025615,"MEAN_MOTION_DDOT":0},{"OBJECT_NAME":"STARLINK-36736","OBJECT_ID":"2026-036H","EPOCH":"2026-03-06T20:00:00.999360","MEAN_MOTION":15.82028701,"ECCENTRICITY":0.0001882,"INCLINATION":42.999,"RA_OF_ASC_NODE":267.2411,"ARG_OF_PERICENTER":288.342,"MEAN_ANOMALY":247.7029,"EPHEMERIS_TYPE":0,"CLASSIFICATION_TYPE":"U","NORAD_CAT_ID":67911,"ELEMENT_SET_NO":999,"REV_AT_EPOCH":318,"BSTAR":-0.00019702,"MEAN_MOTION_DOT":-0.00041845,"MEAN_MOTION_DDOT":0},{"OBJECT_NAME":"STARLINK-36676","OBJECT_ID":"2026-036J","EPOCH":"2026-03-06T20:00:00.999360","MEAN_MOTION":15.82026947,"ECCENTRICITY":0.0002235,"INCLINATION":42.999,"RA_OF_ASC_NODE":267.2307,"ARG_OF_PERICENTER":281.1732,"MEAN_ANOMALY":259.146,"EPHEMERIS_TYPE":0,"CLASSIFICATION_TYPE":"U","NORAD_CAT_ID":67912,"ELEMENT_SET_NO":999,"REV_AT_EPOCH":318,"BSTAR":-0.00015501,"MEAN_MOTION_DOT":-0.0003307,"MEAN_MOTION_DDOT":0}]
