STARLINK-36870          
1 67897U 26035U   26065.83334490 -.01230878  45547-3 -32358-2 0  9998
2 67897  97.2708 357.9808 0001275  85.5244  22.1317 15.94853961  3296
STARLINK-36810          
1 67898U 26035V   26065.83334490 -.01243744  46465-3 -32584-2 0  9996
2 67898  97.2707 357.9825 0001260  79.1543  32.8214 15.94921059  3298
STARLINK-36878          
1 67899U 26035W   26065.83334490 -.01241102  46342-3 -32297-2 0  9998
2 67899  97.2705 357.9861 0001296  91.7319  28.8492 15.95046556  3291
STARLINK-36361          
1 67900U 26035X   26065.83334490 -.01271672  48514-3 -32970-2 0  9997
2 67900  97.2704 357.9880 0001325  90.4324  34.7907 15.95120743  3297
STARLINK-36336          
1 67901U 26035Y   26065.83334490 -.01435200  60816-3 -36851-2 0  9998
2 67901  97.2714 357.9946 0001259  86.8547  52.5268 15.95326405  3341
STARLINK-36876          
1 67902U 26035Z   26065.83334490 -.01317770  51863-3 -34026-2 0  9994
2 67902  97.2712 357.9909 0001326  95.1371  34.2516 15.95203963  3292
STARLINK-36257          
1 67903U 26035AA  26065.83334490 -.01392936  57521-3 -35823-2 0  9995
2 67903  97.2710 357.9917 0001282  81.6762  52.0633 15.95290423  3346
STARLINK-36814          
1 67904U 26036A   26065.83334490 -.00023706  00000+0 -11025-3 0  9997
2 67904  42.9991 267.3170 0002450 265.7455 240.3890 15.82030931  3183
STARLINK-36729          
1 67905U 26036B   26065.83334490 -.00041664  00000+0 -19609-3 0  9997
2 67905  42.9992 267.3056 0001765 280.2801 230.1281 15.82036201  3180
STARLINK-36763          
1 67906U 26036C   26065.83334490 -.00049843  00000+0 -23520-3 0  9992
2 67906  42.9995 267.2949 0002051 267.2936 247.3788 15.82044176  3189
STARLINK-36742          
1 67907U 26036D   26065.83334490 -.00050962  00000+0 -24060-3 0  9997
2 67907  42.9993 267.2842 0001880 271.7836 247.1640 15.82042090  3186
STARLINK-36827          
1 67908U 26036E   26065.83334490 -.00022830  00000+0 -10610-3 0  9997
2 67908  42.9991 267.2738 0001800 276.4044 246.8205 15.82028501  3188
STARLINK-36822          
1 67909U 26036F   26065.83334490 -.00037401  00000+0 -17569-3 0  9998
2 67909  42.9992 267.2632 0001857 275.0064 252.4911 15.82034040  3184
STARLINK-36847          
1 67910U 26036G   26065.83334490 -.00025615  00000+0 -11940-3 0  9991
2 67910  42.9990 267.2521 0001921 279.3030 252.4642 15.82027938  3182
STARLINK-36736          
1 67911U 26036H   26065.83334490 -.00041845  00000+0 -19702-3 0  9999
2 67911  42.9990 267.2411 0001882 288.3420 247.7029 15.82028701  3185
STARLINK-36676          
1 67912U 26036J   26065.83334490 -.00033070  00000+0 -15501-3 0  9994
2 67912  42.9990 267.2307 0002235 281.1732 259.1460 15.82026947  3186
